{
  "type": "FeatureCollection",
  "features": [
    {
      "type": "Feature",
      "properties": {
        "norad_id": 66476,
        "name": "STARLINK-35372",
        "group": "last-30-days",
        "lat": 22.135951806463016,
        "lon": 130.8145018704477,
        "alt_km": 412.1944171230325,
        "timestamp": "2025-12-06T22:38:41.507935+00:00",
        "meta_object_name": "STARLINK-35372",
        "meta_object_id": "2025-262W",
        "meta_epoch": "2025-12-06T14:00:01.999872",
        "meta_mean_motion": 15.50621308,
        "meta_eccentricity": 0.00013649,
        "meta_inclination": 43.0005,
        "meta_ra_of_asc_node": 107.0389,
        "meta_arg_of_pericenter": 268.6717,
        "meta_mean_anomaly": 271.9814,
        "meta_ephemeris_type": 0,
        "meta_classification_type": "U",
        "meta_norad_cat_id": 66476,
        "meta_element_set_no": 999,
        "meta_rev_at_epoch": 454,
        "meta_bstar": -0.002252147,
        "meta_mean_motion_dot": -0.00130482,
        "meta_mean_motion_ddot": 0,
        "tle_line1": "1 66476U 25262W   25340.58335648 -.00130482  00000+0 -22521-2 0  9995",
        "tle_line2": "2 66476  43.0005 107.0389 0001364 268.6717 271.9814 15.50621308  4548"
      },
      "geometry": {
        "type": "Point",
        "coordinates": [
          130.8145018704477,
          22.135951806463016
        ]
      }
    },
    {
      "type": "Feature",
      "properties": {
        "norad_id": 66477,
        "name": "STARLINK-35354",
        "group": "last-30-days",
        "lat": 24.45227214816121,
        "lon": 134.12811475215028,
        "alt_km": 411.7128550243351,
        "timestamp": "2025-12-06T22:38:41.507950+00:00",
        "meta_object_name": "STARLINK-35354",
        "meta_object_id": "2025-262X",
        "meta_epoch": "2025-12-06T14:00:01.999872",
        "meta_mean_motion": 15.50616737,
        "meta_eccentricity": 0.00011796,
        "meta_inclination": 43.0005,
        "meta_ra_of_asc_node": 107.0282,
        "meta_arg_of_pericenter": 275.1573,
        "meta_mean_anomaly": 269.3273,
        "meta_ephemeris_type": 0,
        "meta_classification_type": "U",
        "meta_norad_cat_id": 66477,
        "meta_element_set_no": 999,
        "meta_rev_at_epoch": 464,
        "meta_bstar": -0.0020828271,
        "meta_mean_motion_dot": -0.00120823,
        "meta_mean_motion_ddot": 0,
        "tle_line1": "1 66477U 25262X   25340.58335648 -.00120823  00000+0 -20828-2 0  9992",
        "tle_line2": "2 66477  43.0005 107.0282 0001179 275.1573 269.3273 15.50616737  4649"
      },
      "geometry": {
        "type": "Point",
        "coordinates": [
          134.12811475215028,
          24.45227214816121
        ]
      }
    },
    {
      "type": "Feature",
      "properties": {
        "norad_id": 66478,
        "name": "STARLINK-35283",
        "group": "last-30-days",
        "lat": 25.587118982630283,
        "lon": 135.83669633569264,
        "alt_km": 411.68090625742116,
        "timestamp": "2025-12-06T22:38:41.507962+00:00",
        "meta_object_name": "STARLINK-35283",
        "meta_object_id": "2025-262Y",
        "meta_epoch": "2025-12-06T14:00:01.999872",
        "meta_mean_motion": 15.50626952,
        "meta_eccentricity": 0.0001316,
        "meta_inclination": 43.0006,
        "meta_ra_of_asc_node": 107.0231,
        "meta_arg_of_pericenter": 270.3113,
        "meta_mean_anomaly": 276.0907,
        "meta_ephemeris_type": 0,
        "meta_classification_type": "U",
        "meta_norad_cat_id": 66478,
        "meta_element_set_no": 999,
        "meta_rev_at_epoch": 464,
        "meta_bstar": -0.0024326605,
        "meta_mean_motion_dot": -0.00140757,
        "meta_mean_motion_ddot": 0,
        "tle_line1": "1 66478U 25262Y   25340.58335648 -.00140757  00000+0 -24327-2 0  9999",
        "tle_line2": "2 66478  43.0006 107.0231 0001316 270.3113 276.0907 15.50626952  4644"
      },
      "geometry": {
        "type": "Point",
        "coordinates": [
          135.83669633569264,
          25.587118982630283
        ]
      }
    },
    {
      "type": "Feature",
      "properties": {
        "norad_id": 66479,
        "name": "STARLINK-35581",
        "group": "last-30-days",
        "lat": 23.303566312082417,
        "lon": 132.4569764446737,
        "alt_km": 411.9429916457084,
        "timestamp": "2025-12-06T22:38:41.507974+00:00",
        "meta_object_name": "STARLINK-35581",
        "meta_object_id": "2025-262Z",
        "meta_epoch": "2025-12-06T14:00:01.999872",
        "meta_mean_motion": 15.50624261,
        "meta_eccentricity": 0.0001135,
        "meta_inclination": 43.0006,
        "meta_ra_of_asc_node": 107.0328,
        "meta_arg_of_pericenter": 268.7461,
        "meta_mean_anomaly": 273.8227,
        "meta_ephemeris_type": 0,
        "meta_classification_type": "U",
        "meta_norad_cat_id": 66479,
        "meta_element_set_no": 999,
        "meta_rev_at_epoch": 464,
        "meta_bstar": -0.0023109307,
        "meta_mean_motion_dot": -0.00133833,
        "meta_mean_motion_ddot": 0,
        "tle_line1": "1 66479U 25262Z   25340.58335648 -.00133833  00000+0 -23109-2 0  9994",
        "tle_line2": "2 66479  43.0006 107.0328 0001135 268.7461 273.8227 15.50624261  4649"
      },
      "geometry": {
        "type": "Point",
        "coordinates": [
          132.4569764446737,
          23.303566312082417
        ]
      }
    },
    {
      "type": "Feature",
      "properties": {
        "norad_id": 66480,
        "name": "STARLINK-35670",
        "group": "last-30-days",
        "lat": 26.69494351560166,
        "lon": 137.56715061967085,
        "alt_km": 411.43549075677583,
        "timestamp": "2025-12-06T22:38:41.508013+00:00",
        "meta_object_name": "STARLINK-35670",
        "meta_object_id": "2025-262AA",
        "meta_epoch": "2025-12-06T14:00:01.999872",
        "meta_mean_motion": 15.50592684,
        "meta_eccentricity": 0.00012782,
        "meta_inclination": 43.0004,
        "meta_ra_of_asc_node": 107.0176,
        "meta_arg_of_pericenter": 274.2918,
        "meta_mean_anomaly": 274.0383,
        "meta_ephemeris_type": 0,
        "meta_classification_type": "U",
        "meta_norad_cat_id": 66480,
        "meta_element_set_no": 999,
        "meta_rev_at_epoch": 464,
        "meta_bstar": -0.0014620755,
        "meta_mean_motion_dot": -0.00085227,
        "meta_mean_motion_ddot": 0,
        "tle_line1": "1 66480U 25262AA  25340.58335648 -.00085227  00000+0 -14621-2 0  9998",
        "tle_line2": "2 66480  43.0004 107.0176 0001278 274.2918 274.0383 15.50592684  4646"
      },
      "geometry": {
        "type": "Point",
        "coordinates": [
          137.56715061967085,
          26.69494351560166
        ]
      }
    },
    {
      "type": "Feature",
      "properties": {
        "norad_id": 66481,
        "name": "STARLINK-35698",
        "group": "last-30-days",
        "lat": 27.791367107604426,
        "lon": 139.3483770514228,
        "alt_km": 411.34320174039294,
        "timestamp": "2025-12-06T22:38:41.508023+00:00",
        "meta_object_name": "STARLINK-35698",
        "meta_object_id": "2025-262AB",
        "meta_epoch": "2025-12-06T14:00:01.999872",
        "meta_mean_motion": 15.50626673,
        "meta_eccentricity": 0.0001215,
        "meta_inclination": 43.0006,
        "meta_ra_of_asc_node": 107.0129,
        "meta_arg_of_pericenter": 269.3378,
        "meta_mean_anomaly": 280.9049,
        "meta_ephemeris_type": 0,
        "meta_classification_type": "U",
        "meta_norad_cat_id": 66481,
        "meta_element_set_no": 999,
        "meta_rev_at_epoch": 464,
        "meta_bstar": -0.0024693128,
        "meta_mean_motion_dot": -0.00142832,
        "meta_mean_motion_ddot": 0,
        "tle_line1": "1 66481U 25262AB  25340.58335648 -.00142832  00000+0 -24693-2 0  9995",
        "tle_line2": "2 66481  43.0006 107.0129 0001215 269.3378 280.9049 15.50626673  4644"
      },
      "geometry": {
        "type": "Point",
        "coordinates": [
          139.3483770514228,
          27.791367107604426
        ]
      }
    },
    {
      "type": "Feature",
      "properties": {
        "norad_id": 66482,
        "name": "STARLINK-35648",
        "group": "last-30-days",
        "lat": 28.859777566785095,
        "lon": 141.1581332152552,
        "alt_km": 411.2046825683401,
        "timestamp": "2025-12-06T22:38:41.508033+00:00",
        "meta_object_name": "STARLINK-35648",
        "meta_object_id": "2025-262AC",
        "meta_epoch": "2025-12-06T14:00:01.999872",
        "meta_mean_motion": 15.50636044,
        "meta_eccentricity": 0.00012572,
        "meta_inclination": 43.0006,
        "meta_ra_of_asc_node": 107.0084,
        "meta_arg_of_pericenter": 269.8489,
        "meta_mean_anomaly": 282.3067,
        "meta_ephemeris_type": 0,
        "meta_classification_type": "U",
        "meta_norad_cat_id": 66482,
        "meta_element_set_no": 999,
        "meta_rev_at_epoch": 449,
        "meta_bstar": -0.0026811426,
        "meta_mean_motion_dot": -0.00154872,
        "meta_mean_motion_ddot": 0,
        "tle_line1": "1 66482U 25262AC  25340.58335648 -.00154872  00000+0 -26811-2 0  9997",
        "tle_line2": "2 66482  43.0006 107.0084 0001257 269.8489 282.3067 15.50636044  4491"
      },
      "geometry": {
        "type": "Point",
        "coordinates": [
          141.1581332152552,
          28.859777566785095
        ]
      }
    }
  ]
}